NORAD_CAT_ID,OBJECT_NAME,OBJECT_TYPE,EPOCH,MEAN_MOTION,ECCENTRICITY,INCLINATION,RA_OF_ASC_NODE,ARG_OF_PERICENTER,MEAN_ANOMALY,BSTAR,MEAN_MOTION_DOT,MEAN_MOTION_DDOT,TLE_LINE0,TLE_LINE1,TLE_LINE2,SEMIMAJOR_AXIS,PERIOD,APOGEE,PERIGEE,DECAYED
53249.0,STARLINK-4128,PAYLOAD,2022-11-03 10:44:50,15.0884937,0.0002328,53.2187,280.98900000000003,31.8433,328.2699,0.00014216,1.975e-05,0.0,0 STARLINK-4128,1 53249U 22086H   22307.44780661  .00001975  00000-0  14216-3 0  9990,2 53249  53.2187 280.9890 0002328  31.8433 328.2699 15.08849370 16566,6917.852,95.437,541.327,538.106,0.0
53249.0,STARLINK-4128,PAYLOAD,2022-11-04 07:24:51,15.08845113,0.00027,53.2177,277.1236,34.1509,325.9657,0.00018765,2.7e-05,0.0,0 STARLINK-4128,1 53249U 22086H   22308.30893116  .00002700  00000-0  18765-3 0  9996,2 53249  53.2177 277.1236 0002700  34.1509 325.9657 15.08845113 16492,6917.865,95.437,541.5980000000002,537.862,0.0
53249.0,STARLINK-4128,PAYLOAD,2022-11-04 15:21:47,15.08839491,0.0002702,53.2179,275.6365,35.3779,324.7392,6.0495e-05,6.74e-06,0.0,0 STARLINK-4128,1 53249U 22086H   22308.64013355  .00000674  00000-0  60495-4 0  9998,2 53249  53.2179 275.6365 0002702  35.3779 324.7392 15.08839491 16545,6917.882,95.438,541.616,537.878,0.0
53249.0,STARLINK-4128,PAYLOAD,2022-11-05 07:15:39,15.08838527,0.0002464,53.2194,272.6625,35.7267,324.389,1.4319e-05,-6.1e-07,0.0,0 STARLINK-4128,1 53249U 22086H   22309.30253633 -.00000061  00000-0  14319-4 0  9992,2 53249  53.2194 272.6625 0002464  35.7267 324.3890 15.08838527 16840,6917.885,95.438,541.4540000000002,538.045,0.0
53249.0,STARLINK-4128,PAYLOAD,2022-11-06 03:55:39,15.08838211,0.0002145,53.2205,268.7962,37.9701,322.1442,-3.5603000000000005e-05,-8.55e-06,0.0,0 STARLINK-4128,1 53249U 22086H   22310.16365545 -.00000855  00000-0 -35603-4 0  9995,2 53249  53.2205 268.7962 0002145  37.9701 322.1442 15.08838211 16777,6917.886,95.438,541.235,538.2669999999998,0.0
53249.0,STARLINK-4128,PAYLOAD,2022-11-06 07:06:26,15.08836673,0.0002421,53.2203,268.202,35.6631,324.4523,-7.3414e-05,-1.457e-05,0.0,0 STARLINK-4128,1 53249U 22086H   22310.29613829 -.00001457  00000-0 -73414-4 0  9991,2 53249  53.2203 268.2020 0002421  35.6631 324.4523 15.08836673 16998,6917.891,95.438,541.43,538.081,0.0
53249.0,STARLINK-4128,PAYLOAD,2022-11-07 03:46:27,15.08830519,0.0002205,53.2201,264.3364,39.2704,320.8448,2.6063e-05,1.26e-06,0.0,0 STARLINK-4128,1 53249U 22086H   22311.15726434  .00000126  00000-0  26063-4 0  9992,2 53249  53.2201 264.3364 0002205  39.2704 320.8448 15.08830519 16927,6917.909000000002,95.438,541.3,538.249,0.0
53249.0,STARLINK-4128,PAYLOAD,2022-11-07 21:15:40,15.08845384,0.0002188,53.2203,261.0646,39.9709,320.1444,0.0001973,2.854e-05,0.0,0 STARLINK-4128,1 53249U 22086H   22311.88588972  .00002854  00000-0  19730-3 0  9997,2 53249  53.2203 261.0646 0002188  39.9709 320.1444 15.08845384 17036,6917.864000000001,95.437,541.243,538.215,0.0
53249.0,STARLINK-4128,PAYLOAD,2022-11-08 06:47:58,15.08883759,0.0002288,53.2197,259.2802,34.0491,326.0648,-0.00029007,-4.908e-05,0.0,0 STARLINK-4128,1 53249U 22086H   22312.28331561 -.00004908  00000-0 -29007-3 0  9994,2 53249  53.2197 259.2802 0002288  34.0491 326.0648 15.08883759 17091,6917.746999999999,95.435,541.194,538.029,0.0
53249.0,STARLINK-4128,PAYLOAD,2022-11-08 21:06:26,15.08865713,0.000212,53.2182,256.60400000000004,37.6285,322.4855,0.00029091,4.348e-05,0.0,0 STARLINK-4128,1 53249U 22086H   22312.87947857  .00004348  00000-0  29091-3 0  9999,2 53249  53.2182 256.6040 0002120  37.6285 322.4855 15.08865713 17387,6917.802,95.436,541.133,538.2,0.0
53249.0,STARLINK-4128,PAYLOAD,2022-11-09 03:28:00,15.08841336,0.0002199,53.2185,255.4167,33.3971,326.7159,-0.00013283,-2.402e-05,0.0,0 STARLINK-4128,1 53249U 22086H   22313.14444741 -.00002402  00000-0 -13283-3 0  9991,2 53249  53.2185 255.4167 0002199  33.3971 326.7159 15.08841336 17220,6917.876,95.437,541.263,538.22,0.0
53249.0,STARLINK-4128,PAYLOAD,2022-11-09 13:00:19,15.08832919,0.0002249,53.2188,253.629,34.9863,325.1276,-0.00040448,-6.719e-05,0.0,0 STARLINK-4128,1 53249U 22086H   22313.54188701 -.00006719  00000-0 -40448-3 0  9994,2 53249  53.2188 253.6290 0002249  34.9863 325.1276 15.08832919 17481,6917.901999999999,95.438,541.323,538.211,0.0
53249.0,STARLINK-4128,PAYLOAD,2022-11-10 12:51:07,15.08821446,0.0002116,53.2176,249.1715,42.2532,317.8623,-0.00035027,-5.856e-05,0.0,0 STARLINK-4128,1 53249U 22086H   22314.53549923 -.00005856  00000-0 -35027-3 0  9999,2 53249  53.2176 249.1715 0002116  42.2532 317.8623 15.08821446 17632,6917.937,95.439,541.266,538.3380000000002,0.0
53249.0,STARLINK-4128,PAYLOAD,2022-11-11 12:41:56,15.08816321,0.0002106,53.2186,244.7116,35.5433,324.5699,8.188099999999999e-06,-1.58e-06,0.0,0 STARLINK-4128,1 53249U 22086H   22315.52912052 -.00000158  00000-0  81881-5 0  9996,2 53249  53.2186 244.7116 0002106  35.5433 324.5699 15.08816321 17783,6917.953,95.439,541.275,538.361,0.0
53249.0,STARLINK-4128,PAYLOAD,2022-11-12 04:35:46,15.08833515,0.000218,53.2188,241.7379,38.9207,321.1941,0.00020348,2.951e-05,0.0,0 STARLINK-4128,1 53249U 22086H   22316.19151349  .00002951  00000-0  20348-3 0  9995,2 53249  53.2188 241.7379 0002180  38.9207 321.1941 15.08833515 17687,6917.9,95.438,541.273,538.257,0.0
53249.0,STARLINK-4128,PAYLOAD,2022-11-12 12:32:41,15.08844262,0.0002139,53.2188,240.2513,39.292,320.8227,0.00028529,4.256e-05,0.0,0 STARLINK-4128,1 53249U 22086H   22316.52270703  .00004256  00000-0  28529-3 0  9997,2 53249  53.2188 240.2513 0002139  39.2920 320.8227 15.08844262 17731,6917.8669999999975,95.437,541.212,538.253,0.0
53249.0,STARLINK-4128,PAYLOAD,2022-11-12 18:54:14,15.0884495,0.0002165,53.2189,239.0621,37.7168,322.3976,0.00039841,6.059e-05,0.0,0 STARLINK-4128,1 53249U 22086H   22316.78766674  .00006059  00000-0  39841-3 0  9994,2 53249  53.2189 239.0621 0002165  37.7168 322.3976 15.08844950 17972,6917.865,95.437,541.2280000000002,538.2330000000002,0.0
53249.0,STARLINK-4128,PAYLOAD,2022-11-13 04:26:33,15.08849591,0.000219,53.218,237.2782,36.5371,323.577,0.00050308,7.730000000000001e-05,0.0,0 STARLINK-4128,1 53249U 22086H   22317.18511421  .00007730  00000-0  50308-3 0  9995,2 53249  53.2180 237.2782 0002190  36.5371 323.5770 15.08849591 17838,6917.851,95.437,541.231,538.201,0.0
53249.0,STARLINK-4128,PAYLOAD,2022-11-14 05:52:44,15.08832854,0.0002121,53.2175,232.5203,37.4422,322.6718,-0.00010843,-2.013e-05,0.0,0 STARLINK-4128,1 53249U 22086H   22318.24495905 -.00002013  00000-0 -10843-3 0  9992,2 53249  53.2175 232.5203 0002121  37.4422 322.6718 15.08832854 17992,6917.901999999999,95.438,541.235,538.3,0.0
53249.0,STARLINK-4128,PAYLOAD,2022-11-14 18:35:49,15.08840107,0.0002009,53.2174,230.1415,38.0634,322.05,0.00043262,6.604e-05,0.0,0 STARLINK-4128,1 53249U 22086H   22318.77488091  .00006604  00000-0  43262-3 0  9997,2 53249  53.2174 230.1415 0002009  38.0634 322.0500 15.08840107 18272,6917.88,95.438,541.135,538.355,0.0
53249.0,STARLINK-4128,PAYLOAD,2022-11-15 05:43:31,15.0885454,0.0002296,53.2176,228.0605,38.2808,321.8347,0.00055903,8.624e-05,0.0,0 STARLINK-4128,1 53249U 22086H   22319.23855569  .00008624  00000-0  55903-3 0  9996,2 53249  53.2176 228.0605 0002296  38.2808 321.8347 15.08854540 18142,6917.8359999999975,95.437,541.289,538.113,0.0
53249.0,STARLINK-4128,PAYLOAD,2022-11-15 21:37:22,15.08846138,0.0001985,53.2176,225.0855,44.7086,315.4066,0.00019273,2.781e-05,0.0,0 STARLINK-4128,1 53249U 22086H   22319.90095538  .00002781  00000-0  19273-3 0  9990,2 53249  53.2176 225.0855 0001985  44.7086 315.4066 15.08846138 18242,6917.861999999999,95.437,541.1,538.3530000000002,0.0
53249.0,STARLINK-4128,PAYLOAD,2022-11-16 00:48:09,15.08832097,0.0002134,53.2174,224.492,39.3154,320.7993,8.952600000000001e-05,1.137e-05,0.0,0 STARLINK-4128,1 53249U 22086H   22320.03344151  .00001137  00000-0  89526-4 0  9997,2 53249  53.2174 224.4920 0002134  39.3154 320.7993 15.08832097 18268,6917.905,95.438,541.246,538.293,0.0
53249.0,STARLINK-4128,PAYLOAD,2022-11-16 05:34:18,15.08831523,0.0002145,53.2186,223.5999,37.5562,322.5579,0.00012806,1.75e-05,0.0,0 STARLINK-4128,1 53249U 22086H   22320.23216261  .00001750  00000-0  12806-3 0  9996,2 53249  53.2186 223.5999 0002145  37.5562 322.5579 15.08831523 18490,6917.906,95.438,541.255,538.2869999999998,0.0
53249.0,STARLINK-4128,PAYLOAD,2022-11-17 02:14:18,15.08846513,0.0002238,53.2184,219.7345,38.0228,322.0922,4.0355e-05,3.54e-06,0.0,0 STARLINK-4128,1 53249U 22086H   22321.09327308  .00000354  00000-0  40355-4 0  9996,2 53249  53.2184 219.7345 0002238  38.0228 322.0922 15.08846513 18423,6917.86,95.437,541.274,538.177,0.0
53249.0,STARLINK-4128,PAYLOAD,2022-11-17 05:25:05,15.08841585,0.0002226,53.2185,219.1399,41.6764,318.4397,3.3246999999999995e-05,2.41e-06,0.0,0 STARLINK-4128,1 53249U 22086H   22321.22575710  .00000241  00000-0  33247-4 0  9990,2 53249  53.2185 219.1399 0002226  41.6764 318.4397 15.08841585 18642,6917.876,95.437,541.28,538.201,0.0
53249.0,STARLINK-4128,PAYLOAD,2022-11-17 19:43:33,15.0884065,0.0002257,53.2184,216.4638,39.9655,320.1503,0.00014126,1.961e-05,0.0,0 STARLINK-4128,1 53249U 22086H   22321.82191180  .00001961  00000-0  14126-3 0  9995,2 53249  53.2184 216.4638 0002257  39.9655 320.1503 15.08840650 18731,6917.878000000002,95.438,541.305,538.182,0.0
53249.0,STARLINK-4128,PAYLOAD,2022-11-18 10:02:01,15.08837607,0.0002204,53.2185,213.7879,40.3224,319.7931,8.519e-05,1.068e-05,0.0,0 STARLINK-4128,1 53249U 22086H   22322.41807679  .00001068  00000-0  85190-4 0  9996,2 53249  53.2185 213.7879 0002204  40.3224 319.7931 15.08837607 18624,6917.888000000001,95.438,541.2769999999998,538.2280000000002,0.0
53249.0,STARLINK-4128,PAYLOAD,2022-11-18 19:34:19,15.08851387,0.0002312,53.2185,212.004,40.1303,319.986,5.492e-05,5.86e-06,0.0,0 STARLINK-4128,1 53249U 22086H   22322.81550821  .00000586  00000-0  54920-4 0  9995,2 53249  53.2185 212.0040 0002312  40.1303 319.9860 15.08851387 18884,6917.846,95.437,541.31,538.111,0.0
